[{"OBJECT_NAME":"COSMOS 2251 DEB","OBJECT_ID":"1993-036ACM","EPOCH":"2026-04-26T14:45:14.893344","MEAN_MOTION":14.3707064,"ECCENTRICITY":0.0051447,"INCLINATION":74.038,"RA_OF_ASC_NODE":185.8923,"ARG_OF_PERICENTER":181.1032,"MEAN_ANOMALY":329.9766,"EPHEMERIS_TYPE":0,"CLASSIFICATION_TYPE":"U","NORAD_CAT_ID":34874,"ELEMENT_SET_NO":999,"REV_AT_EPOCH":88981,"BSTAR":0.00064915,"MEAN_MOTION_DOT":1.931e-5,"MEAN_MOTION_DDOT":0},{"OBJECT_NAME":"COSMOS 2251 DEB","OBJECT_ID":"1993-036ACN","EPOCH":"2026-04-26T15:52:10.628832","MEAN_MOTION":14.49410428,"ECCENTRICITY":0.001536,"INCLINATION":74.0433,"RA_OF_ASC_NODE":265.3164,"ARG_OF_PERICENTER":354.3008,"MEAN_ANOMALY":21.1964,"EPHEMERIS_TYPE":0,"CLASSIFICATION_TYPE":"U","NORAD_CAT_ID":34875,"ELEMENT_SET_NO":999,"REV_AT_EPOCH":89710,"BSTAR":0.00038088,"MEAN_MOTION_DOT":1.432e-5,"MEAN_MOTION_DDOT":0},{"OBJECT_NAME":"COSMOS 2251 DEB","OBJECT_ID":"1993-036ACR","EPOCH":"2026-04-22T14:00:32.155200","MEAN_MOTION":13.44381836,"ECCENTRICITY":0.04347923,"INCLINATION":73.9653,"RA_OF_ASC_NODE":199.6926,"ARG_OF_PERICENTER":158.4113,"MEAN_ANOMALY":270.2063,"EPHEMERIS_TYPE":0,"CLASSIFICATION_TYPE":"U","NORAD_CAT_ID":34878,"ELEMENT_SET_NO":999,"REV_AT_EPOCH":83031,"BSTAR":0.00058976864,"MEAN_MOTION_DOT":5.87e-6,"MEAN_MOTION_DDOT":0},{"OBJECT_NAME":"COSMOS 2251 DEB","OBJECT_ID":"1993-036ACV","EPOCH":"2026-04-25T23:46:42.735360","MEAN_MOTION":14.61864828,"ECCENTRICITY":0.0081665,"INCLINATION":74.0462,"RA_OF_ASC_NODE":328.8433,"ARG_OF_PERICENTER":61.7995,"MEAN_ANOMALY":299.1388,"EPHEMERIS_TYPE":0,"CLASSIFICATION_TYPE":"U","NORAD_CAT_ID":34882,"ELEMENT_SET_NO":999,"REV_AT_EPOCH":90486,"BSTAR":0.00014841037,"MEAN_MOTION_DOT":7.46e-6,"MEAN_MOTION_DDOT":0},{"OBJECT_NAME":"COSMOS 2251 DEB","OBJECT_ID":"1993-036ACW","EPOCH":"2026-04-26T02:49:17.345568","MEAN_MOTION":14.5533463,"ECCENTRICITY":0.00919685,"INCLINATION":74.1978,"RA_OF_ASC_NODE":171.4044,"ARG_OF_PERICENTER":312.57,"MEAN_ANOMALY":46.7728,"EPHEMERIS_TYPE":0,"CLASSIFICATION_TYPE":"U","NORAD_CAT_ID":34883,"ELEMENT_SET_NO":999,"REV_AT_EPOCH":88392,"BSTAR":0.0023986936,"MEAN_MOTION_DOT":0.00011002,"MEAN_MOTION_DDOT":0},{"OBJECT_NAME":"COSMOS 2251 DEB","OBJECT_ID":"1993-036ACX","EPOCH":"2026-04-26T20:22:25.220928","MEAN_MOTION":14.9832708,"ECCENTRICITY":0.000814,"INCLINATION":74.0123,"RA_OF_ASC_NODE":144.2094,"ARG_OF_PERICENTER":238.8153,"MEAN_ANOMALY":297.1875,"EPHEMERIS_TYPE":0,"CLASSIFICATION_TYPE":"U","NORAD_CAT_ID":34884,"ELEMENT_SET_NO":999,"REV_AT_EPOCH":89823,"BSTAR":0.0021197,"MEAN_MOTION_DOT":0.00025317,"MEAN_MOTION_DDOT":0},{"OBJECT_NAME":"COSMOS 2251 DEB","OBJECT_ID":"1993-036ACY","EPOCH":"2026-04-26T19:17:56.550336","MEAN_MOTION":14.5232664,"ECCENTRICITY":0.0014026,"INCLINATION":74.0295,"RA_OF_ASC_NODE":288.5192,"ARG_OF_PERICENTER":343.7128,"MEAN_ANOMALY":130.0705,"EPHEMERIS_TYPE":0,"CLASSIFICATION_TYPE":"U","NORAD_CAT_ID":34885,"ELEMENT_SET_NO":999,"REV_AT_EPOCH":89439,"BSTAR":0.00057998,"MEAN_MOTION_DOT":2.335e-5,"MEAN_MOTION_DDOT":0},{"OBJECT_NAME":"COSMOS 2251 DEB","OBJECT_ID":"1993-036ADD","EPOCH":"2026-04-26T19:45:28.418112","MEAN_MOTION":14.37910562,"ECCENTRICITY":0.0039097,"INCLINATION":74.0554,"RA_OF_ASC_NODE":135.3189,"ARG_OF_PERICENTER":122.6304,"MEAN_ANOMALY":54.4643,"EPHEMERIS_TYPE":0,"CLASSIFICATION_TYPE":"U","NORAD_CAT_ID":34908,"ELEMENT_SET_NO":999,"REV_AT_EPOCH":89220,"BSTAR":0.00042964,"MEAN_MOTION_DOT":1.283e-5,"MEAN_MOTION_DDOT":0},{"OBJECT_NAME":"COSMOS 2251 DEB","OBJECT_ID":"1993-036ADE","EPOCH":"2026-04-26T11:59:13.604064","MEAN_MOTION":14.78806247,"ECCENTRICITY":0.0084454,"INCLINATION":74.0122,"RA_OF_ASC_NODE":171.4123,"ARG_OF_PERICENTER":272.0557,"MEAN_ANOMALY":87.0948,"EPHEMERIS_TYPE":0,"CLASSIFICATION_TYPE":"U","NORAD_CAT_ID":34909,"ELEMENT_SET_NO":999,"REV_AT_EPOCH":68843,"BSTAR":0.00032856054,"MEAN_MOTION_DOT":2.528e-5,"MEAN_MOTION_DDOT":0},{"OBJECT_NAME":"COSMOS 2251 DEB","OBJECT_ID":"1993-036ADF","EPOCH":"2026-04-25T19:27:27.840096","MEAN_MOTION":13.37895627,"ECCENTRICITY":0.04668855,"INCLINATION":73.8735,"RA_OF_ASC_NODE":249.8111,"ARG_OF_PERICENTER":345.7161,"MEAN_ANOMALY":165.2035,"EPHEMERIS_TYPE":0,"CLASSIFICATION_TYPE":"U","NORAD_CAT_ID":34910,"ELEMENT_SET_NO":999,"REV_AT_EPOCH":83317,"BSTAR":0.00030642913,"MEAN_MOTION_DOT":2.81e-6,"MEAN_MOTION_DDOT":0},{"OBJECT_NAME":"COSMOS 2251 DEB","OBJECT_ID":"1993-036ADG","EPOCH":"2026-04-26T09:47:20.266080","MEAN_MOTION":14.59574825,"ECCENTRICITY":0.00826436,"INCLINATION":74.0419,"RA_OF_ASC_NODE":348.04,"ARG_OF_PERICENTER":80.0264,"MEAN_ANOMALY":98.7924,"EPHEMERIS_TYPE":0,"CLASSIFICATION_TYPE":"U","NORAD_CAT_ID":34911,"ELEMENT_SET_NO":999,"REV_AT_EPOCH":90551,"BSTAR":0.00011533321,"MEAN_MOTION_DOT":5.44e-6,"MEAN_MOTION_DDOT":0},{"OBJECT_NAME":"COSMOS 2251 DEB","OBJECT_ID":"1993-036ADJ","EPOCH":"2026-04-26T01:19:53.654304","MEAN_MOTION":14.34678256,"ECCENTRICITY":0.00201094,"INCLINATION":74.03,"RA_OF_ASC_NODE":36.3416,"ARG_OF_PERICENTER":118.4427,"MEAN_ANOMALY":261.3366,"EPHEMERIS_TYPE":0,"CLASSIFICATION_TYPE":"U","NORAD_CAT_ID":34913,"ELEMENT_SET_NO":999,"REV_AT_EPOCH":67114,"BSTAR":3.6869783e-5,"MEAN_MOTION_DOT":7.9e-7,"MEAN_MOTION_DDOT":0},{"OBJECT_NAME":"COSMOS 2251 DEB","OBJECT_ID":"1993-036ADP","EPOCH":"2026-04-26T14:11:34.686816","MEAN_MOTION":14.63411009,"ECCENTRICITY":0.0026355,"INCLINATION":74.0687,"RA_OF_ASC_NODE":55.8516,"ARG_OF_PERICENTER":343.3396,"MEAN_ANOMALY":195.9944,"EPHEMERIS_TYPE":0,"CLASSIFICATION_TYPE":"U","NORAD_CAT_ID":34918,"ELEMENT_SET_NO":999,"REV_AT_EPOCH":67307,"BSTAR":0.0018708,"MEAN_MOTION_DOT":9.71e-5,"MEAN_MOTION_DDOT":0},{"OBJECT_NAME":"COSMOS 2251 DEB","OBJECT_ID":"1993-036ADV","EPOCH":"2026-04-26T16:19:15.968352","MEAN_MOTION":14.61183853,"ECCENTRICITY":0.0055517,"INCLINATION":74.0403,"RA_OF_ASC_NODE":191.7335,"ARG_OF_PERICENTER":242.1998,"MEAN_ANOMALY":279.9727,"EPHEMERIS_TYPE":0,"CLASSIFICATION_TYPE":"U","NORAD_CAT_ID":34924,"ELEMENT_SET_NO":999,"REV_AT_EPOCH":89693,"BSTAR":0.00069459,"MEAN_MOTION_DOT":3.466e-5,"MEAN_MOTION_DDOT":0},{"OBJECT_NAME":"COSMOS 2251 DEB","OBJECT_ID":"1993-036ADX","EPOCH":"2026-04-25T09:09:45.383328","MEAN_MOTION":14.14536316,"ECCENTRICITY":0.02207259,"INCLINATION":73.7496,"RA_OF_ASC_NODE":350.8452,"ARG_OF_PERICENTER":176.9089,"MEAN_ANOMALY":183.3479,"EPHEMERIS_TYPE":0,"CLASSIFICATION_TYPE":"U","NORAD_CAT_ID":34944,"ELEMENT_SET_NO":999,"REV_AT_EPOCH":65972,"BSTAR":0.00043377853,"MEAN_MOTION_DOT":1.025e-5,"MEAN_MOTION_DDOT":0},{"OBJECT_NAME":"COSMOS 2251 DEB","OBJECT_ID":"1993-036ADZ","EPOCH":"2026-04-25T14:59:42.593856","MEAN_MOTION":14.62803858,"ECCENTRICITY":0.005142,"INCLINATION":74.021,"RA_OF_ASC_NODE":85.4174,"ARG_OF_PERICENTER":190.6004,"MEAN_ANOMALY":169.4084,"EPHEMERIS_TYPE":0,"CLASSIFICATION_TYPE":"U","NORAD_CAT_ID":34946,"ELEMENT_SET_NO":999,"REV_AT_EPOCH":90166,"BSTAR":0.00035393777,"MEAN_MOTION_DOT":1.81e-5,"MEAN_MOTION_DDOT":0}]
