COSMOS 2251 DEB         
1 34874U 93036ACM 26116.61475571  .00001931  00000+0  64915-3 0  9990
2 34874  74.0380 185.8923 0051447 181.1032 329.9766 14.37070640889811
COSMOS 2251 DEB         
1 34875U 93036ACN 26116.66123413  .00001432  00000+0  38088-3 0  9999
2 34875  74.0433 265.3164 0015360 354.3008  21.1964 14.49410428897100
COSMOS 2251 DEB         
1 34878U 93036ACR 26112.58370550  .00000587  00000+0  58977-3 0  9994
2 34878  73.9653 199.6926 0434792 158.4113 270.2063 13.44381836830315
COSMOS 2251 DEB         
1 34882U 93036ACV 26115.99077240  .00000746  00000+0  14841-3 0  9996
2 34882  74.0462 328.8433 0081665  61.7995 299.1388 14.61864828904869
COSMOS 2251 DEB         
1 34883U 93036ACW 26116.11756187  .00011002  00000+0  23987-2 0  9993
2 34883  74.1978 171.4044 0091968 312.5700  46.7728 14.55334630883924
COSMOS 2251 DEB         
1 34884U 93036ACX 26116.84890302  .00025317  00000+0  21197-2 0  9997
2 34884  74.0123 144.2094 0008140 238.8153 297.1875 14.98327080898234
COSMOS 2251 DEB         
1 34885U 93036ACY 26116.80412674  .00002335  00000+0  57998-3 0  9990
2 34885  74.0295 288.5192 0014026 343.7128 130.0705 14.52326640894395
COSMOS 2251 DEB         
1 34908U 93036ADD 26116.82324558  .00001283  00000+0  42964-3 0  9999
2 34908  74.0554 135.3189 0039097 122.6304  54.4643 14.37910562892202
COSMOS 2251 DEB         
1 34909U 93036ADE 26116.49946301  .00002528  00000+0  32856-3 0  9991
2 34909  74.0122 171.4123 0084454 272.0557  87.0948 14.78806247688437
COSMOS 2251 DEB         
1 34910U 93036ADF 26115.81073889  .00000281  00000+0  30643-3 0  9996
2 34910  73.8735 249.8111 0466885 345.7161 165.2035 13.37895627833177
COSMOS 2251 DEB         
1 34911U 93036ADG 26116.40787345  .00000544  00000+0  11533-3 0  9991
2 34911  74.0419 348.0400 0082643  80.0264  98.7924 14.59574825905516
COSMOS 2251 DEB         
1 34913U 93036ADJ 26116.05548211  .00000079  00000+0  36870-4 0  9996
2 34913  74.0300  36.3416 0020109 118.4427 261.3366 14.34678256671140
COSMOS 2251 DEB         
1 34918U 93036ADP 26116.59137369  .00009710  00000+0  18708-2 0  9997
2 34918  74.0687  55.8516 0026355 343.3396 195.9944 14.63411009673074
COSMOS 2251 DEB         
1 34924U 93036ADV 26116.68004593  .00003466  00000+0  69459-3 0  9998
2 34924  74.0403 191.7335 0055517 242.1998 279.9727 14.61183853896937
COSMOS 2251 DEB         
1 34944U 93036ADX 26115.38177527  .00001025  00000+0  43378-3 0  9995
2 34944  73.7496 350.8452 0220725 176.9089 183.3479 14.14536316659725
COSMOS 2251 DEB         
1 34946U 93036ADZ 26115.62479854  .00001810  00000+0  35394-3 0  9993
2 34946  74.0210  85.4174 0051420 190.6004 169.4084 14.62803858901662
